ARSAT 1                 
1 40272U 14062B   20289.50852708 -.00000267  00000-0  00000-0 0  9990
2 40272   0.0288 258.0090 0001350 306.8304 290.9420  1.00270821 21855
EXPRESS-AM6             
1 40277U 14064A   20289.53313103  .00000090  00000-0  00000-0 0  9994
2 40277   0.0362 294.2514 0000292 247.6616  87.5457  1.00272538 20810
GSAT-16                 
1 40332U 14078A   20289.53278382  .00000077  00000-0  00000-0 0  9995
2 40332   0.0165 196.8142 0004842 278.9828 155.6004  1.00271680 21367
DIRECTV 14              
1 40333U 14078B   20289.54663634 -.00000132  00000-0  00000-0 0  9998
2 40333   0.0161 175.3668 0000192 224.1541  82.5765  1.00270706 21290
YAMAL 401               
1 40345U 14082A   20289.52193973 -.00000236  00000-0  00000-0 0  9993
2 40345   0.0129 186.5743 0001022 119.3695 356.4228  1.00270556 21158
ASTRA 2G                
1 40364U 14089A   20289.29407948  .00000143  00000-0  00000-0 0  9991
2 40364   0.0338  62.7101 0001399  40.5984  55.1051  1.00274889 21203
FENGYUN 2G              
1 40367U 14090A   20288.44709640 -.00000303  00000-0  00000-0 0  9995
2 40367   2.3612  92.9637 0001878 302.6374 248.0330  1.00262908 21260
MUOS-3                  
1 40374U 15002A   20289.43591038 -.00000139  00000-0  00000-0 0  9994
2 40374   2.7271 350.5228 0058700 181.7133 353.6830  1.00272274 20823
INMARSAT 5-F2           
1 40384U 15005A   20289.49280293 -.00000292  00000-0  00000-0 0  9992
2 40384   0.0207 233.9978 0000276 213.5335  59.3893  1.00271836 20229
ABS-3A                  
1 40424U 15010A   20289.35985536 -.00000033  00000-0  00000-0 0  9993
2 40424   0.0187 249.0131 0001198 201.6871  60.2494  1.00270443 20644
EUTELSAT 115 WEST B     
1 40425U 15010B   20289.53354470 -.00000032  00000-0  00000-0 0  9990
2 40425   0.0199  66.8207 0000168 104.7869 290.1061  1.00272864 20646
EXPRESS-AM7             
1 40505U 15012A   20289.53868819  .00000143  00000-0  00000-0 0  9990
2 40505   0.0230 216.4958 0002927 352.7347  49.1989  1.00269140 20248
IRNSS-1D                
1 40547U 15018A   20289.38279840 -.00000306  00000-0  00000-0 0  9997
2 40547  29.0194 275.3030 0019810 187.1072 171.5368  1.00276123 20221
BEIDOU 17               
1 40549U 15019A   20289.46979563 -.00000150  00000-0  00000-0 0  9995
2 40549  52.8765 319.8226 0040609 193.3407 136.0761  1.00260995 20316
THOR 7                  
1 40613U 15022A   20289.37341093 -.00000015  00000-0  00000-0 0  9992
2 40613   0.0102 199.3442 0002456   2.9778 315.8504  1.00272860 20061
TURKMENALEM52E/MONACOSAT
1 40617U 15023A   20289.53313103  .00000097  00000-0  00000-0 0  9995
2 40617   0.0182 203.0055 0003434   9.2263  56.2244  1.00269036 20071
DIRECTV 15              
1 40663U 15026A   20289.62679734 -.00000110  00000-0  00000+0 0  9990
2 40663   0.0229 118.1567 0000247  22.8270   6.4241  1.00270411 19774
SKY MEXICO-1            
1 40664U 15026B   20289.50359206 -.00000242  00000-0  00000-0 0  9994
2 40664   0.0235 226.0037 0002011 353.3832 267.6481  1.00273479 19752
METEOSAT-11 (MSG-4)     
1 40732U 15034A   20289.28858360 -.00000013  00000-0  00000-0 0  9995
2 40732   0.5594 269.3190 0002150 262.9847 315.7360  1.00267050 19261
STAR ONE C4             
1 40733U 15034B   20289.38323532 -.00000272  00000-0  00000+0 0  9991
2 40733   0.0566  61.9342 0001870 181.6890 208.7422  1.00271971 19250
WGS F7 (USA 263)        
1 40746U 15036A   20289.47472527  .00000011  00000-0  00000-0 0  9997
2 40746   0.0121 150.1759 0000129  32.1409 188.0822  1.00271677 19118
INTELSAT 34 (IS-34)     
1 40874U 15039A   20289.49280293 -.00000292  00000-0  00000-0 0  9993
2 40874   0.0214 242.1370 0000660 160.8279 103.4441  1.00269368 18861
EUTELSAT 8 WEST B       
1 40875U 15039B   20289.35880853 -.00000072  00000-0  00000-0 0  9993
2 40875   0.0736  28.8719 0003353 141.8958 334.7725  1.00272358 18904
GSAT-6                  
1 40880U 15041A   20289.58590932 -.00000168  00000-0  00000-0 0  9999
2 40880   0.0622 104.9795 0006168 118.3902  94.6404  1.00271414 18884
INMARSAT 5-F3           
1 40882U 15042A   20289.47799388  .00000043  00000-0  00000-0 0  9997
2 40882   0.0204 230.5045 0000100  89.0504  56.6101  1.00272251 18802
MUOS-4                  
1 40887U 15044A   20289.51888648 -.00000105  00000-0  00000-0 0  9997
2 40887   2.8464 346.6064 0051568 356.5952 303.1590  1.00271260 18797
TJS-1                   
1 40892U 15046A   20289.60673307 -.00000163  00000-0  10000-3 0  9997
2 40892   0.0770  96.9719 0004820 240.1039  60.9745  1.00271517 18793
EXPRESS-AM8             
1 40895U 15048A   20289.35767446 -.00000118  00000-0  00000-0 0  9998
2 40895   0.0227 322.8588 0001228 323.9804 212.2943  1.00271764 18614
BEIDOU 20               
1 40938U 15053A   20289.07705101 -.00000119  00000-0  00000-0 0  9992
2 40938  52.4403 282.8633 0048467 192.3675  30.9027  1.00291580 18598
SKY MUSTER (NBN1A)      
1 40940U 15054A   20289.44445271 -.00000286  00000-0  00000-0 0  9991
2 40940   0.0148 243.5489 0001582 319.7144 121.4485  1.00270732 18503
ARSAT 2                 
1 40941U 15054B   20289.50164762 -.00000232  00000-0  00000-0 0  9993
2 40941   0.0288 254.6078 0001636 302.2637 287.2190  1.00270338 18562
MORELOS 3               
1 40946U 15056A   20289.53490257 -.00000058  00000-0  00000-0 0  9990
2 40946   4.6358 329.0698 0001990 182.8463 312.0745  1.00272159 18524
APSTAR 9                
1 40982U 15059A   20289.60514266 -.00000273  00000-0  00000-0 0  9997
2 40982   0.0584  87.3680 0002584  68.5024 228.6154  1.00271616 18368
TURKSAT 4B              
1 40984U 15060A   20289.53313103  .00000107  00000-0  00000-0 0  9995
2 40984   0.0208 220.6379 0002099 336.8778  68.9322  1.00272779 18350
CHINASAT 2C (ZX 2C)     
1 41021U 15063A   20287.85257887 -.00000330  00000-0  00000+0 0  9998
2 41021   0.0359 318.4348 0000573   5.0863 109.6962  1.00268924 18234
GSAT-15                 
1 41028U 15065A   20289.52263762 -.00000265  00000-0  00000-0 0  9990
2 41028   0.0837  97.9965 0002341  80.7414 127.4454  1.00270834 18049
BADR-7 (ARABSAT-6B)     
1 41029U 15065B   20289.50920329  .00000137  00000-0  00000-0 0  9995
2 41029   0.0587 262.0825 0006175 325.5764   6.1717  1.00268995 18005
LAOSAT 1                
1 41034U 15067A   20289.56306333 -.00000350  00000-0  00000-0 0  9990
2 41034   0.0433  47.5337 0001407 119.5091 188.7563  1.00271410 18105
TELSTAR 12V             
1 41036U 15068A   20289.43591038 -.00000126  00000-0  00000-0 0  9998
2 41036   0.0238 219.5385 0001707 348.4563 318.3638  1.00270004 17868
CHINASAT 1C (ZX 1C)     
1 41103U 15073A   20289.59207743 -.00000156  00000-0  00000-0 0  9996
2 41103   1.8977  91.2749 0001998 106.0239 121.9342  1.00270978 17906
ELEKTRO-L 2             
1 41105U 15074A   20289.35758722 -.00000120  00000-0  00000+0 0  9991
2 41105   1.4810  95.6503 0003108 111.1889 291.8110  1.00271457 17755
COSMOS 2513             
1 41121U 15075A   20289.58590932 -.00000146  00000-0  00000-0 0  9991
2 41121   0.0500 106.9709 0002796 124.7882  84.0149  1.00272979 17768
EXPRESS-AMU1            
1 41191U 15082A   20289.53868819  .00000148  00000-0  00000-0 0  9994
2 41191   0.0172 259.9069 0002634 304.5100  50.1730  1.00274081 17519
GAOFEN 4                
1 41194U 15083A   20289.32436168 -.00000341  00000-0  00000+0 0  9998
2 41194   0.0683 111.9858 0002113  73.1038  61.6832  1.00268267 17725
BELINTERSAT-1           
1 41238U 16001A   20289.53313103  .00000099  00000-0  00000-0 0  9994
2 41238   0.0230  49.4314 0001589 126.4605  92.0595  1.00272808 17496
IRNSS-1E                
1 41241U 16003A   20289.38279840 -.00000272  00000-0  00000+0 0  9995
2 41241  28.6442  94.3009 0019985 177.5725   2.1262  1.00276079 17431
EUTELSAT 9B             
1 41310U 16005A   20289.36785380  .00000055  00000-0  00000-0 0  9992
2 41310   0.0882  78.8125 0005144 178.3245 268.6575  1.00271721 17350
SES-9                   
1 41380U 16013A   20289.52560365 -.00000353  00000-0  00000-0 0  9992
2 41380   0.0242 263.9238 0001181 229.6180 188.5132  1.00271284 16671
EUTELSAT 65 WEST A      
1 41382U 16014A   20289.51556080 -.00000283  00000-0  00000-0 0  9995
2 41382   0.0551  15.8133 0002012 171.4241 317.6780  1.00273849 16785
IRNSS-1F                
1 41384U 16015A   20289.51042459  .00000152  00000-0  00000-0 0  9992
2 41384   2.0544 209.1718 0018146 182.9235 208.6590  1.00268567 16939
BEIDOU IGSO-6           
1 41434U 16021A   20289.60637182 -.00000146  00000-0  00000-0 0  9992
2 41434  57.2113  59.2359 0041781 203.8176  75.3818  1.00276175 16725
IRNSS-1G                
1 41469U 16027A   20289.56314131 -.00000343  00000-0  00000-0 0  9996
2 41469   2.0638 212.4649 0003890 292.5593 211.6147  1.00269808 16438
JCSAT-2B                
1 41471U 16028A   20289.51090854 -.00000173  00000-0  00000-0 0  9999
2 41471   0.0214 203.9600 0001960   2.6078 155.8578  1.00269177 16341
THAICOM 8               
1 41552U 16031A   20289.58590932 -.00000129  00000-0  00000-0 0  9993
2 41552   0.0881  82.9135 0001262 311.2416 279.9219  1.00269636 15955
INTELSAT 31 (IS-31)     
1 41581U 16035A   20289.54927174 -.00000158  00000-0  00000-0 0  9999
2 41581   0.0178 236.6091 0001461 354.9284 255.6961  1.00270133 15840
BEIDOU-2 G7             
1 41586U 16037A   20289.57479934 -.00000360  00000-0  00000-0 0  9990
2 41586   1.7359  67.3681 0007636 359.6987 274.9829  1.00269352 16029
ABS-2A (MONGOLSAT-1)    
1 41588U 16038A   20289.57695215 -.00000091  00000-0  00000-0 0  9996
2 41588   0.0126 215.9969 0000616 190.3653 260.6529  1.00269253 15945
EUTELSAT 117 WEST B     
1 41589U 16038B   20289.53245859 -.00000019  00000-0  00000-0 0  9998
2 41589   0.0227  60.6572 0000282  76.8532 321.7124  1.00272679 15919
BRISAT                  
1 41591U 16039A   20289.63206774 -.00000203  00000-0  00000-0 0  9991
2 41591   0.0184 261.1643 0002083 296.3465 205.1797  1.00272484 15854
